{
  "type": "FeatureCollection",
  "features": [
    {
      "type": "Feature",
      "properties": {
        "norad_id": 30701,
        "name": "FENGYUN 1C DEB",
        "group": "fengyun-1c-debris",
        "lat": 18.191320915884155,
        "lon": 21.399457482594904,
        "alt_km": 848.299524774523,
        "timestamp": "2025-12-08T21:31:04.945942+00:00",
        "meta_object_name": "FENGYUN 1C DEB",
        "meta_object_id": "1999-025ARK",
        "meta_epoch": "2025-12-08T15:15:13.319712",
        "meta_mean_motion": 14.13934109,
        "meta_eccentricity": 0.00356637,
        "meta_inclination": 98.7188,
        "meta_ra_of_asc_node": 24.0354,
        "meta_arg_of_pericenter": 114.1087,
        "meta_mean_anomaly": 16.9576,
        "meta_ephemeris_type": 0,
        "meta_classification_type": "U",
        "meta_norad_cat_id": 30701,
        "meta_element_set_no": 999,
        "meta_rev_at_epoch": 97061,
        "meta_bstar": 3.0552724e-05,
        "meta_mean_motion_dot": 1.6e-07,
        "meta_mean_motion_ddot": 0,
        "tle_line1": "1 30701U 99025ARK 25342.63557083  .00000016  00000+0  30553-4 0  9995",
        "tle_line2": "2 30701  98.7188  24.0354 0035663 114.1087  16.9576 14.13934109970619"
      },
      "geometry": {
        "type": "Point",
        "coordinates": [
          21.399457482594904,
          18.191320915884155
        ]
      }
    },
    {
      "type": "Feature",
      "properties": {
        "norad_id": 30702,
        "name": "FENGYUN 1C DEB",
        "group": "fengyun-1c-debris",
        "lat": 72.03620909998297,
        "lon": -148.69419184392868,
        "alt_km": 918.6535110990444,
        "timestamp": "2025-12-08T21:31:04.945952+00:00",
        "meta_object_name": "FENGYUN 1C DEB",
        "meta_object_id": "1999-025ARL",
        "meta_epoch": "2025-12-08T07:24:55.702656",
        "meta_mean_motion": 14.03577281,
        "meta_eccentricity": 0.00684754,
        "meta_inclination": 98.77,
        "meta_ra_of_asc_node": 2.3067,
        "meta_arg_of_pericenter": 314.4388,
        "meta_mean_anomaly": 63.446,
        "meta_ephemeris_type": 0,
        "meta_classification_type": "U",
        "meta_norad_cat_id": 30702,
        "meta_element_set_no": 999,
        "meta_rev_at_epoch": 96100,
        "meta_bstar": 0.0011775507,
        "meta_mean_motion_dot": 1.843e-05,
        "meta_mean_motion_ddot": 0,
        "tle_line1": "1 30702U 99025ARL 25342.30897804  .00001843  00000+0  11776-2 0  9991",
        "tle_line2": "2 30702  98.7700   2.3067 0068475 314.4388  63.4460 14.03577281961001"
      },
      "geometry": {
        "type": "Point",
        "coordinates": [
          -148.69419184392868,
          72.03620909998297
        ]
      }
    },
    {
      "type": "Feature",
      "properties": {
        "norad_id": 30703,
        "name": "FENGYUN 1C DEB",
        "group": "fengyun-1c-debris",
        "lat": -9.445996098906221,
        "lon": -30.662079727466953,
        "alt_km": 773.8453554899661,
        "timestamp": "2025-12-08T21:31:04.945963+00:00",
        "meta_object_name": "FENGYUN 1C DEB",
        "meta_object_id": "1999-025ARM",
        "meta_epoch": "2025-12-07T22:10:33.240576",
        "meta_mean_motion": 14.19284602,
        "meta_eccentricity": 0.0118002,
        "meta_inclination": 99.1418,
        "meta_ra_of_asc_node": 326.7995,
        "meta_arg_of_pericenter": 305.7662,
        "meta_mean_anomaly": 117.1693,
        "meta_ephemeris_type": 0,
        "meta_classification_type": "U",
        "meta_norad_cat_id": 30703,
        "meta_element_set_no": 999,
        "meta_rev_at_epoch": 96472,
        "meta_bstar": 0.0018114229,
        "meta_mean_motion_dot": 4.028e-05,
        "meta_mean_motion_ddot": 0,
        "tle_line1": "1 30703U 99025ARM 25341.92399584  .00004028  00000+0  18114-2 0  9992",
        "tle_line2": "2 30703  99.1418 326.7995 0118002 305.7662 117.1693 14.19284602964722"
      },
      "geometry": {
        "type": "Point",
        "coordinates": [
          -30.662079727466953,
          -9.445996098906221
        ]
      }
    },
    {
      "type": "Feature",
      "properties": {
        "norad_id": 30704,
        "name": "FENGYUN 1C DEB",
        "group": "fengyun-1c-debris",
        "lat": 8.062344832834908,
        "lon": 163.0080660184356,
        "alt_km": 859.6054695465973,
        "timestamp": "2025-12-08T21:31:04.945973+00:00",
        "meta_object_name": "FENGYUN 1C DEB",
        "meta_object_id": "1999-025ARN",
        "meta_epoch": "2025-12-08T11:09:37.588896",
        "meta_mean_motion": 14.02039865,
        "meta_eccentricity": 0.0081675,
        "meta_inclination": 98.8713,
        "meta_ra_of_asc_node": 341.3205,
        "meta_arg_of_pericenter": 111.6659,
        "meta_mean_anomaly": 42.1765,
        "meta_ephemeris_type": 0,
        "meta_classification_type": "U",
        "meta_norad_cat_id": 30704,
        "meta_element_set_no": 999,
        "meta_rev_at_epoch": 96051,
        "meta_bstar": 0.00063893696,
        "meta_mean_motion_dot": 9.62e-06,
        "meta_mean_motion_ddot": 0,
        "tle_line1": "1 30704U 99025ARN 25342.46501839  .00000962  00000+0  63894-3 0  9990",
        "tle_line2": "2 30704  98.8713 341.3205 0081675 111.6659  42.1765 14.02039865960510"
      },
      "geometry": {
        "type": "Point",
        "coordinates": [
          163.0080660184356,
          8.062344832834908
        ]
      }
    },
    {
      "type": "Feature",
      "properties": {
        "norad_id": 30705,
        "name": "FENGYUN 1C DEB",
        "group": "fengyun-1c-debris",
        "lat": 28.965803483003004,
        "lon": -87.16672124075237,
        "alt_km": 1070.3026325494338,
        "timestamp": "2025-12-08T21:31:04.945983+00:00",
        "meta_object_name": "FENGYUN 1C DEB",
        "meta_object_id": "1999-025ARP",
        "meta_epoch": "2025-12-08T05:16:54.881760",
        "meta_mean_motion": 13.81284685,
        "meta_eccentricity": 0.01993097,
        "meta_inclination": 102.1805,
        "meta_ra_of_asc_node": 85.0965,
        "meta_arg_of_pericenter": 292.8664,
        "meta_mean_anomaly": 96.3844,
        "meta_ephemeris_type": 0,
        "meta_classification_type": "U",
        "meta_norad_cat_id": 30705,
        "meta_element_set_no": 999,
        "meta_rev_at_epoch": 93947,
        "meta_bstar": 0.0034436172,
        "meta_mean_motion_dot": 4.184e-05,
        "meta_mean_motion_ddot": 0,
        "tle_line1": "1 30705U 99025ARP 25342.22007965  .00004184  00000+0  34436-2 0  9995",
        "tle_line2": "2 30705 102.1805  85.0965 0199309 292.8664  96.3844 13.81284685939477"
      },
      "geometry": {
        "type": "Point",
        "coordinates": [
          -87.16672124075237,
          28.965803483003004
        ]
      }
    },
    {
      "type": "Feature",
      "properties": {
        "norad_id": 30706,
        "name": "FENGYUN 1C DEB",
        "group": "fengyun-1c-debris",
        "lat": -8.015483249839074,
        "lon": 56.081192111794,
        "alt_km": 795.1495895199978,
        "timestamp": "2025-12-08T21:31:04.945993+00:00",
        "meta_object_name": "FENGYUN 1C DEB",
        "meta_object_id": "1999-025ARQ",
        "meta_epoch": "2025-12-08T10:32:25.355040",
        "meta_mean_motion": 14.26399365,
        "meta_eccentricity": 0.00262674,
        "meta_inclination": 99.0647,
        "meta_ra_of_asc_node": 236.8961,
        "meta_arg_of_pericenter": 140.8021,
        "meta_mean_anomaly": 219.5066,
        "meta_ephemeris_type": 0,
        "meta_classification_type": "U",
        "meta_norad_cat_id": 30706,
        "meta_element_set_no": 999,
        "meta_rev_at_epoch": 97566,
        "meta_bstar": 0.0014110526,
        "meta_mean_motion_dot": 3.36e-05,
        "meta_mean_motion_ddot": 0,
        "tle_line1": "1 30706U 99025ARQ 25342.43918235  .00003360  00000+0  14111-2 0  9993",
        "tle_line2": "2 30706  99.0647 236.8961 0026267 140.8021 219.5066 14.26399365975667"
      },
      "geometry": {
        "type": "Point",
        "coordinates": [
          56.081192111794,
          -8.015483249839074
        ]
      }
    },
    {
      "type": "Feature",
      "properties": {
        "norad_id": 30707,
        "name": "FENGYUN 1C DEB",
        "group": "fengyun-1c-debris",
        "lat": 53.98008030165566,
        "lon": 23.796497796250534,
        "alt_km": 779.6572497366005,
        "timestamp": "2025-12-08T21:31:04.946004+00:00",
        "meta_object_name": "FENGYUN 1C DEB",
        "meta_object_id": "1999-025ARR",
        "meta_epoch": "2025-12-08T15:15:52.202304",
        "meta_mean_motion": 14.26643735,
        "meta_eccentricity": 0.00280481,
        "meta_inclination": 99.4127,
        "meta_ra_of_asc_node": 36.7048,
        "meta_arg_of_pericenter": 81.6571,
        "meta_mean_anomaly": 76.1207,
        "meta_ephemeris_type": 0,
        "meta_classification_type": "U",
        "meta_norad_cat_id": 30707,
        "meta_element_set_no": 999,
        "meta_rev_at_epoch": 96744,
        "meta_bstar": 0.0023105762,
        "meta_mean_motion_dot": 5.56e-05,
        "meta_mean_motion_ddot": 0,
        "tle_line1": "1 30707U 99025ARR 25342.63602086  .00005560  00000+0  23106-2 0  9998",
        "tle_line2": "2 30707  99.4127  36.7048 0028048  81.6571  76.1207 14.26643735967443"
      },
      "geometry": {
        "type": "Point",
        "coordinates": [
          23.796497796250534,
          53.98008030165566
        ]
      }
    }
  ]
}